ONEWEB-0161             
1 48053U 21025M   25232.80068118  .00000123  00000+0  30221-3 0  9992
2 48053  87.9000  19.8961 0001654 100.6496 259.4820 13.13467998214077
ONEWEB-0158             
1 48054U 21025N   25232.91242131 -.00000330  00000+0 -93903-3 0  9992
2 48054  87.8999  19.8531 0001868  93.3917 266.7426 13.13469946214214
ONEWEB-0157             
1 48055U 21025P   25232.78545003  .00000414  00000+0  10982-2 0  9998
2 48055  87.8995  19.8877 0001436 106.9138 253.2149 13.13471191214130
ONEWEB-0162             
1 48056U 21025Q   25232.91396708 -.00000113  00000+0 -34315-3 0  9995
2 48056  87.8998  19.8609 0001746  97.7845 262.3482 13.13471348214127
ONEWEB-0155             
1 48057U 21025R   25232.92087830 -.00000027  00000+0 -10896-3 0  9992
2 48057  87.8993  19.8673 0001583  93.7633 266.3677 13.13469834214266
ONEWEB-0149             
1 48058U 21025S   25232.79053655  .00000317  00000+0  83432-3 0  9992
2 48058  87.8995  19.8877 0001901 101.1304 259.0039 13.13469394214057
ONEWEB-0148             
1 48059U 21025T   25232.90564321 -.00000228  00000+0 -65838-3 0  9996
2 48059  87.8992  19.8897 0002013 114.5911 245.5428 13.13468682214190
ONEWEB-0160             
1 48060U 21025U   25232.92257669  .00000031  00000+0  51177-4 0  9996
2 48060  87.8996  19.8832 0002414  81.6602 278.4801 13.13470537214148
ONEWEB-0163             
1 48061U 21025V   25232.90733261 -.00000257  00000+0 -73893-3 0  9992
2 48061  87.8996  19.8665 0001494 102.9590 257.1706 13.13471557214267
ONEWEB-0159             
1 48062U 21025W   25232.89886001 -.00000481  00000+0 -13516-2 0  9996
2 48062  87.8998  19.8501 0001659 103.3290 256.8024 13.13469564214189
ONEWEB-0164             
1 48063U 21025X   25232.88024118  .00000002  00000+0 -28166-4 0  9996
2 48063  87.8996  19.8633 0001774  94.4653 265.6679 13.13470667214163
ONEWEB-0167             
1 48064U 21025Y   25232.90817912 -.00000228  00000+0 -65881-3 0  9997
2 48064  87.9004  19.8915 0001016  83.1740 276.9505 13.13471699214157
ONEWEB-0166             
1 48065U 21025Z   25232.77867541  .00000356  00000+0  94111-3 0  9994
2 48065  87.8992  19.8678 0001801 101.9622 258.1709 13.13472072214210
ONEWEB-0151             
1 48066U 21025AA  25232.78038139  .00000188  00000+0  47919-3 0  9996
2 48066  87.8997  19.8917 0001645  92.9244 267.2073 13.13468421214158
ONEWEB-0170             
1 48067U 21025AB  25232.78883217  .00000288  00000+0  75487-3 0  9994
2 48067  87.8999  19.8963 0001805  80.1345 279.9987 13.13471246214110
ONEWEB-0168             
1 48068U 21025AC  25232.77359974  .00000249  00000+0  64804-3 0  9990
2 48068  87.8997  19.8805 0001633  99.8847 260.2466 13.13470217214120
ONEWEB-0173             
1 48069U 21025AD  25232.91749034 -.00000152  00000+0 -45003-3 0  9992
2 48069  87.8997  19.8602 0001304 100.2735 259.8541 13.13470290214381
