[{"OBJECT_NAME":"ONEWEB-0161","OBJECT_ID":"2021-025M","EPOCH":"2025-08-20T19:12:58.853952","MEAN_MOTION":13.13467998,"ECCENTRICITY":0.0001654,"INCLINATION":87.9,"RA_OF_ASC_NODE":19.8961,"ARG_OF_PERICENTER":100.6496,"MEAN_ANOMALY":259.482,"EPHEMERIS_TYPE":0,"CLASSIFICATION_TYPE":"U","NORAD_CAT_ID":48053,"ELEMENT_SET_NO":999,"REV_AT_EPOCH":21407,"BSTAR":0.00030221,"MEAN_MOTION_DOT":1.23e-6,"MEAN_MOTION_DDOT":0},{"OBJECT_NAME":"ONEWEB-0158","OBJECT_ID":"2021-025N","EPOCH":"2025-08-20T21:53:53.201184","MEAN_MOTION":13.13469946,"ECCENTRICITY":0.0001868,"INCLINATION":87.8999,"RA_OF_ASC_NODE":19.8531,"ARG_OF_PERICENTER":93.3917,"MEAN_ANOMALY":266.7426,"EPHEMERIS_TYPE":0,"CLASSIFICATION_TYPE":"U","NORAD_CAT_ID":48054,"ELEMENT_SET_NO":999,"REV_AT_EPOCH":21421,"BSTAR":-0.00093903,"MEAN_MOTION_DOT":-3.3e-6,"MEAN_MOTION_DDOT":0},{"OBJECT_NAME":"ONEWEB-0157","OBJECT_ID":"2021-025P","EPOCH":"2025-08-20T18:51:02.882592","MEAN_MOTION":13.13471191,"ECCENTRICITY":0.0001436,"INCLINATION":87.8995,"RA_OF_ASC_NODE":19.8877,"ARG_OF_PERICENTER":106.9138,"MEAN_ANOMALY":253.2149,"EPHEMERIS_TYPE":0,"CLASSIFICATION_TYPE":"U","NORAD_CAT_ID":48055,"ELEMENT_SET_NO":999,"REV_AT_EPOCH":21413,"BSTAR":0.0010982,"MEAN_MOTION_DOT":4.14e-6,"MEAN_MOTION_DDOT":0},{"OBJECT_NAME":"ONEWEB-0162","OBJECT_ID":"2021-025Q","EPOCH":"2025-08-20T21:56:06.755712","MEAN_MOTION":13.13471348,"ECCENTRICITY":0.0001746,"INCLINATION":87.8998,"RA_OF_ASC_NODE":19.8609,"ARG_OF_PERICENTER":97.7845,"MEAN_ANOMALY":262.3482,"EPHEMERIS_TYPE":0,"CLASSIFICATION_TYPE":"U","NORAD_CAT_ID":48056,"ELEMENT_SET_NO":999,"REV_AT_EPOCH":21412,"BSTAR":-0.00034315,"MEAN_MOTION_DOT":-1.13e-6,"MEAN_MOTION_DDOT":0},{"OBJECT_NAME":"ONEWEB-0155","OBJECT_ID":"2021-025R","EPOCH":"2025-08-20T22:06:03.885120","MEAN_MOTION":13.13469834,"ECCENTRICITY":0.0001583,"INCLINATION":87.8993,"RA_OF_ASC_NODE":19.8673,"ARG_OF_PERICENTER":93.7633,"MEAN_ANOMALY":266.3677,"EPHEMERIS_TYPE":0,"CLASSIFICATION_TYPE":"U","NORAD_CAT_ID":48057,"ELEMENT_SET_NO":999,"REV_AT_EPOCH":21426,"BSTAR":-0.00010896,"MEAN_MOTION_DOT":-2.7e-7,"MEAN_MOTION_DDOT":0},{"OBJECT_NAME":"ONEWEB-0149","OBJECT_ID":"2021-025S","EPOCH":"2025-08-20T18:58:22.357920","MEAN_MOTION":13.13469394,"ECCENTRICITY":0.0001901,"INCLINATION":87.8995,"RA_OF_ASC_NODE":19.8877,"ARG_OF_PERICENTER":101.1304,"MEAN_ANOMALY":259.0039,"EPHEMERIS_TYPE":0,"CLASSIFICATION_TYPE":"U","NORAD_CAT_ID":48058,"ELEMENT_SET_NO":999,"REV_AT_EPOCH":21405,"BSTAR":0.00083432,"MEAN_MOTION_DOT":3.17e-6,"MEAN_MOTION_DDOT":0},{"OBJECT_NAME":"ONEWEB-0148","OBJECT_ID":"2021-025T","EPOCH":"2025-08-20T21:44:07.573344","MEAN_MOTION":13.13468682,"ECCENTRICITY":0.0002013,"INCLINATION":87.8992,"RA_OF_ASC_NODE":19.8897,"ARG_OF_PERICENTER":114.5911,"MEAN_ANOMALY":245.5428,"EPHEMERIS_TYPE":0,"CLASSIFICATION_TYPE":"U","NORAD_CAT_ID":48059,"ELEMENT_SET_NO":999,"REV_AT_EPOCH":21419,"BSTAR":-0.00065838,"MEAN_MOTION_DOT":-2.28e-6,"MEAN_MOTION_DDOT":0},{"OBJECT_NAME":"ONEWEB-0160","OBJECT_ID":"2021-025U","EPOCH":"2025-08-20T22:08:30.626016","MEAN_MOTION":13.13470537,"ECCENTRICITY":0.0002414,"INCLINATION":87.8996,"RA_OF_ASC_NODE":19.8832,"ARG_OF_PERICENTER":81.6602,"MEAN_ANOMALY":278.4801,"EPHEMERIS_TYPE":0,"CLASSIFICATION_TYPE":"U","NORAD_CAT_ID":48060,"ELEMENT_SET_NO":999,"REV_AT_EPOCH":21414,"BSTAR":5.1177e-5,"MEAN_MOTION_DOT":3.1e-7,"MEAN_MOTION_DDOT":0},{"OBJECT_NAME":"ONEWEB-0163","OBJECT_ID":"2021-025V","EPOCH":"2025-08-20T21:46:33.537504","MEAN_MOTION":13.13471557,"ECCENTRICITY":0.0001494,"INCLINATION":87.8996,"RA_OF_ASC_NODE":19.8665,"ARG_OF_PERICENTER":102.959,"MEAN_ANOMALY":257.1706,"EPHEMERIS_TYPE":0,"CLASSIFICATION_TYPE":"U","NORAD_CAT_ID":48061,"ELEMENT_SET_NO":999,"REV_AT_EPOCH":21426,"BSTAR":-0.00073893,"MEAN_MOTION_DOT":-2.57e-6,"MEAN_MOTION_DDOT":0},{"OBJECT_NAME":"ONEWEB-0159","OBJECT_ID":"2021-025W","EPOCH":"2025-08-20T21:34:21.504864","MEAN_MOTION":13.13469564,"ECCENTRICITY":0.0001659,"INCLINATION":87.8998,"RA_OF_ASC_NODE":19.8501,"ARG_OF_PERICENTER":103.329,"MEAN_ANOMALY":256.8024,"EPHEMERIS_TYPE":0,"CLASSIFICATION_TYPE":"U","NORAD_CAT_ID":48062,"ELEMENT_SET_NO":999,"REV_AT_EPOCH":21418,"BSTAR":-0.0013516,"MEAN_MOTION_DOT":-4.81e-6,"MEAN_MOTION_DDOT":0},{"OBJECT_NAME":"ONEWEB-0164","OBJECT_ID":"2021-025X","EPOCH":"2025-08-20T21:07:32.837952","MEAN_MOTION":13.13470667,"ECCENTRICITY":0.0001774,"INCLINATION":87.8996,"RA_OF_ASC_NODE":19.8633,"ARG_OF_PERICENTER":94.4653,"MEAN_ANOMALY":265.6679,"EPHEMERIS_TYPE":0,"CLASSIFICATION_TYPE":"U","NORAD_CAT_ID":48063,"ELEMENT_SET_NO":999,"REV_AT_EPOCH":21416,"BSTAR":-2.8166e-5,"MEAN_MOTION_DOT":2.0e-8,"MEAN_MOTION_DDOT":0},{"OBJECT_NAME":"ONEWEB-0167","OBJECT_ID":"2021-025Y","EPOCH":"2025-08-20T21:47:46.675968","MEAN_MOTION":13.13471699,"ECCENTRICITY":0.0001016,"INCLINATION":87.9004,"RA_OF_ASC_NODE":19.8915,"ARG_OF_PERICENTER":83.174,"MEAN_ANOMALY":276.9505,"EPHEMERIS_TYPE":0,"CLASSIFICATION_TYPE":"U","NORAD_CAT_ID":48064,"ELEMENT_SET_NO":999,"REV_AT_EPOCH":21415,"BSTAR":-0.00065881,"MEAN_MOTION_DOT":-2.28e-6,"MEAN_MOTION_DDOT":0},{"OBJECT_NAME":"ONEWEB-0166","OBJECT_ID":"2021-025Z","EPOCH":"2025-08-20T18:41:17.555424","MEAN_MOTION":13.13472072,"ECCENTRICITY":0.0001801,"INCLINATION":87.8992,"RA_OF_ASC_NODE":19.8678,"ARG_OF_PERICENTER":101.9622,"MEAN_ANOMALY":258.1709,"EPHEMERIS_TYPE":0,"CLASSIFICATION_TYPE":"U","NORAD_CAT_ID":48065,"ELEMENT_SET_NO":999,"REV_AT_EPOCH":21421,"BSTAR":0.00094111,"MEAN_MOTION_DOT":3.56e-6,"MEAN_MOTION_DDOT":0},{"OBJECT_NAME":"ONEWEB-0151","OBJECT_ID":"2021-025AA","EPOCH":"2025-08-20T18:43:44.952096","MEAN_MOTION":13.13468421,"ECCENTRICITY":0.0001645,"INCLINATION":87.8997,"RA_OF_ASC_NODE":19.8917,"ARG_OF_PERICENTER":92.9244,"MEAN_ANOMALY":267.2073,"EPHEMERIS_TYPE":0,"CLASSIFICATION_TYPE":"U","NORAD_CAT_ID":48066,"ELEMENT_SET_NO":999,"REV_AT_EPOCH":21415,"BSTAR":0.00047919,"MEAN_MOTION_DOT":1.88e-6,"MEAN_MOTION_DDOT":0},{"OBJECT_NAME":"ONEWEB-0170","OBJECT_ID":"2021-025AB","EPOCH":"2025-08-20T18:55:55.099488","MEAN_MOTION":13.13471246,"ECCENTRICITY":0.0001805,"INCLINATION":87.8999,"RA_OF_ASC_NODE":19.8963,"ARG_OF_PERICENTER":80.1345,"MEAN_ANOMALY":279.9987,"EPHEMERIS_TYPE":0,"CLASSIFICATION_TYPE":"U","NORAD_CAT_ID":48067,"ELEMENT_SET_NO":999,"REV_AT_EPOCH":21411,"BSTAR":0.00075487,"MEAN_MOTION_DOT":2.88e-6,"MEAN_MOTION_DDOT":0},{"OBJECT_NAME":"ONEWEB-0168","OBJECT_ID":"2021-025AC","EPOCH":"2025-08-20T18:33:59.017536","MEAN_MOTION":13.13470217,"ECCENTRICITY":0.0001633,"INCLINATION":87.8997,"RA_OF_ASC_NODE":19.8805,"ARG_OF_PERICENTER":99.8847,"MEAN_ANOMALY":260.2466,"EPHEMERIS_TYPE":0,"CLASSIFICATION_TYPE":"U","NORAD_CAT_ID":48068,"ELEMENT_SET_NO":999,"REV_AT_EPOCH":21412,"BSTAR":0.00064804,"MEAN_MOTION_DOT":2.49e-6,"MEAN_MOTION_DDOT":0},{"OBJECT_NAME":"ONEWEB-0173","OBJECT_ID":"2021-025AD","EPOCH":"2025-08-20T22:01:11.165376","MEAN_MOTION":13.1347029,"ECCENTRICITY":0.0001304,"INCLINATION":87.8997,"RA_OF_ASC_NODE":19.8602,"ARG_OF_PERICENTER":100.2735,"MEAN_ANOMALY":259.8541,"EPHEMERIS_TYPE":0,"CLASSIFICATION_TYPE":"U","NORAD_CAT_ID":48069,"ELEMENT_SET_NO":999,"REV_AT_EPOCH":21438,"BSTAR":-0.00045003,"MEAN_MOTION_DOT":-1.52e-6,"MEAN_MOTION_DDOT":0}]
